IRIDIUM 155             
1 43573U 18061E   24147.91345331  .00000146  00000+0  44962-4 0  9994
2 43573  86.3985  10.6523 0001890  87.7340 272.4072 14.34218499305677
IRIDIUM 154             
1 43574U 18061F   24147.89442853  .00000417  00000+0  14177-3 0  9994
2 43574  86.3993  10.7569 0002384  84.1970 275.9497 14.34218726305725
IRIDIUM 163             
1 43575U 18061G   24147.87539865  .00000424  00000+0  14416-3 0  9997
2 43575  86.3989  10.7038 0002129  84.5065 275.6374 14.34218147305692
IRIDIUM 156             
1 43576U 18061H   24147.85002981  .00000420  00000+0  14283-3 0  9998
2 43576  86.3989  10.7207 0002106  90.1890 269.9547 14.34219046305681
IRIDIUM 164             
1 43577U 18061J   24147.90077394  .00000420  00000+0  14307-3 0  9992
2 43577  86.3991  10.7280 0002453  89.1108 271.0369 14.34217932305735
IRIDIUM 159             
1 43578U 18061K   24147.86905605  .00000401  00000+0  13595-3 0  9990
2 43578  86.3989  10.6938 0002475  84.3012 275.8466 14.34217883305697
IRIDIUM 180             
1 43922U 19002A   24147.86855222  .00000382  00000+0  12923-3 0  9990
2 43922  86.3939 307.5792 0002219  89.5496 270.5954 14.34218513281306
IRIDIUM 176             
1 43923U 19002B   24147.91193231  .00001499  00000+0  23387-3 0  9998
2 43923  86.6072 307.5840 0002454  88.4757 271.6742 14.72237524288715
IRIDIUM 168             
1 43924U 19002C   24147.93197826  .00000269  00000+0  89145-4 0  9994
2 43924  86.3943 307.6086 0002212  93.8116 266.3332 14.34217298281290
IRIDIUM 173             
1 43925U 19002D   24147.36114467  .00000456  00000+0  15587-3 0  9998
2 43925  86.3937 307.7670 0002211  88.7612 271.3837 14.34219626281199
IRIDIUM 169             
1 43926U 19002E   24147.91076144  .00000084  00000+0  21066-4 0  9996
2 43926  86.4219 339.1623 0001305  20.3000 339.8250 14.38586183282219
IRIDIUM 172             
1 43927U 19002F   24147.91295152  .00000251  00000+0  82397-4 0  9999
2 43927  86.3939 307.5419 0002287  90.7002 269.4456 14.34218173281282
IRIDIUM 175             
1 43928U 19002G   24147.90619934  .00001698  00000+0  26536-3 0  9995
2 43928  86.1493 281.9215 0001963  88.9445 271.1996 14.72231986288707
IRIDIUM 171             
1 43929U 19002H   24147.89392661  .00000300  00000+0  10006-3 0  9993
2 43929  86.3947 307.7734 0002263  97.4272 262.7181 14.34216351281278
IRIDIUM 170             
1 43930U 19002J   24147.91812768  .00001641  00000+0  25626-3 0  9996
2 43930  86.6072 307.5862 0002397  89.0703 271.0789 14.72262208288724
IRIDIUM 167             
1 43931U 19002K   24147.95734892  .00000303  00000+0  10104-3 0  9991
2 43931  86.3940 307.5393 0002063  93.7789 266.3643 14.34217763281285
IRIDIUM 181             
1 56726U 23068S   24147.61901239  .00000550  00000+0  15668-3 0  9992
2 56726  86.8648   0.3639 0002088  91.0715 269.0726 14.43580649 54027
IRIDIUM 177             
1 56727U 23068T   24147.93066943  .00000809  00000+0  10300-3 0  9997
2 56727  86.1955 325.4584 0002311  97.7610 262.3874 14.80205233 55236
IRIDIUM 174             
1 56728U 23068U   24147.92523601  .00000821  00000+0  10460-3 0  9997
2 56728  86.1961 325.5629 0002001  88.0068 272.1382 14.80204150 55231
IRIDIUM 178             
1 56729U 23068V   24147.24377265  .00002127  00000+0  27638-3 0  9992
2 56729  86.5776 342.3109 0002470  73.0182 287.1310 14.80250007 55139
IRIDIUM 179             
1 56730U 23068W   24147.84676900  .00001999  00000+0  25947-3 0  9995
2 56730  86.6789 345.9184 0002429  74.8401 285.3089 14.80260518 55226
